[{"OBJECT_NAME":"STARLINK-30796","OBJECT_ID":"2023-167Q","EPOCH":"2026-03-09T04:47:02.728032","MEAN_MOTION":15.27559241,"ECCENTRICITY":0.00015816,"INCLINATION":43.0052,"RA_OF_ASC_NODE":145.8654,"ARG_OF_PERICENTER":239.7068,"MEAN_ANOMALY":120.3627,"EPHEMERIS_TYPE":0,"CLASSIFICATION_TYPE":"U","NORAD_CAT_ID":58189,"ELEMENT_SET_NO":999,"REV_AT_EPOCH":13091,"BSTAR":-3.7025027e-5,"MEAN_MOTION_DOT":-1.28e-5,"MEAN_MOTION_DDOT":0},{"OBJECT_NAME":"CZ-6A DEB","OBJECT_ID":"2022-151AJB","EPOCH":"2026-02-27T14:06:27.470880","MEAN_MOTION":15.13235807,"ECCENTRICITY":0.00651829,"INCLINATION":98.7617,"RA_OF_ASC_NODE":191.4844,"ARG_OF_PERICENTER":85.1472,"MEAN_ANOMALY":275.7194,"EPHEMERIS_TYPE":0,"CLASSIFICATION_TYPE":"U","NORAD_CAT_ID":58433,"ELEMENT_SET_NO":999,"REV_AT_EPOCH":15167,"BSTAR":0.0027921214,"MEAN_MOTION_DOT":0.00052525,"MEAN_MOTION_DDOT":0}]
